[{"OBJECT_NAME":"STARLINK-31877","OBJECT_ID":"2024-084X","EPOCH":"2026-03-09T23:07:23.459808","MEAN_MOTION":15.27544433,"ECCENTRICITY":0.00023288,"INCLINATION":43.0101,"RA_OF_ASC_NODE":40.3652,"ARG_OF_PERICENTER":279.6008,"MEAN_ANOMALY":80.4581,"EPHEMERIS_TYPE":0,"CLASSIFICATION_TYPE":"U","NORAD_CAT_ID":59675,"ELEMENT_SET_NO":999,"REV_AT_EPOCH":10441,"BSTAR":-3.0444489e-5,"MEAN_MOTION_DOT":-1.099e-5,"MEAN_MOTION_DDOT":0},{"OBJECT_NAME":"OBJECT BC","OBJECT_ID":"2025-313BC","EPOCH":"2026-03-09T04:33:08.504064","MEAN_MOTION":15.29126358,"ECCENTRICITY":0.00084789,"INCLINATION":97.3985,"RA_OF_ASC_NODE":144.811,"ARG_OF_PERICENTER":328.9209,"MEAN_ANOMALY":31.1528,"EPHEMERIS_TYPE":0,"CLASSIFICATION_TYPE":"U","NORAD_CAT_ID":67298,"ELEMENT_SET_NO":999,"REV_AT_EPOCH":789,"BSTAR":0.0026410397,"MEAN_MOTION_DOT":0.00075331,"MEAN_MOTION_DDOT":0}]
